STARLINK-31481          
1 59541U 24074H   26068.12824842 -.00002634  00000+0 -86250-4 0  9995
2 59541  43.0040 346.2485 0001211 247.3805 112.6919 15.27577203105939
2025-313BD              
1 67299U 25313BD  26068.62968741  .00081010  00000+0  27634-2 0  9995
2 67299  97.3970 145.2850 0007287 333.4514  26.6352 15.30002360 10838
